ONEWEB-0211             
1 48767U 21045A   26187.19591484  .00000052  00000+0  10240-3 0  9995
2 48767  87.8997 255.2909 0002514 111.9733 248.1665 13.16197459246944
ONEWEB-0223             
1 48768U 21045B   26187.20759927  .00000002  00000+0 -28843-4 0  9991
2 48768  87.9001 255.4021 0002133 110.1714 249.9646 13.15547908246907
ONEWEB-0230             
1 48769U 21045C   26187.17908148  .00000163  00000+0  39992-3 0  9992
2 48769  87.8991 255.4198 0001934  94.9942 265.1409 13.15547984247160
ONEWEB-0237             
1 48770U 21045D   26187.24404284  .00000070  00000+0  15309-3 0  9997
2 48770  87.8989 255.4087 0002372 100.6897 259.4500 13.15547394246899
ONEWEB-0235             
1 48771U 21045E   26187.14262823 -.00000057  00000+0 -18608-3 0  9990
2 48771  87.9000 255.4163 0002066 110.9654 249.1697 13.15550159246879
ONEWEB-0242             
1 48772U 21045F   26187.21235427 -.00000014  00000+0 -71487-4 0  9997
2 48772  87.9003 255.3997 0001890 102.7011 257.4330 13.15548740246922
ONEWEB-0241             
1 48773U 21045G   26187.19966479  .00000105  00000+0  24520-3 0  9997
2 48773  87.8993 255.4182 0002294 108.6603 251.4776 13.15550698246831
ONEWEB-0243             
1 48774U 21045H   26187.23137037  .00000015  00000+0  50465-5 0  9992
2 48774  87.8988 255.4245 0001644 110.4690 249.6617 13.15550687246865
ONEWEB-0222             
1 48775U 21045J   26187.21471535 -.00000290  00000+0 -80569-3 0  9998
2 48775  87.9001 255.3970 0002160 105.3324 254.8045 13.15547740246902
ONEWEB-0244             
1 48776U 21045K   26187.24087597  .00000074  00000+0  16375-3 0  9995
2 48776  87.9002 255.3875 0002002 102.7085 257.4269 13.15547894247478
ONEWEB-0247             
1 48777U 21045L   26187.23770839  .00000031  00000+0  48024-4 0  9993
2 48777  87.8988 255.4176 0001779 122.7377 237.3925 13.15548787246918
ONEWEB-0245             
1 48778U 21045M   26187.23294774 -.00000074  00000+0 -23039-3 0  9990
2 48778  87.8999 255.3995 0002199 103.0716 257.0660 13.15548951246889
ONEWEB-0229             
1 48779U 21045N   26187.22819503 -.00000099  00000+0 -29607-3 0  9997
2 48779  87.9000 255.3982 0001941 100.9562 259.1787 13.15548033246917
ONEWEB-0228             
1 48780U 21045P   26187.26161242  .00000141  00000+0  34140-3 0  9997
2 48780  87.9007 255.3852 0002026 101.1430 258.9929 13.15548710246832
ONEWEB-0232             
1 48781U 21045Q   26187.23612280  .00000078  00000+0  17388-3 0  9992
2 48781  87.9001 255.3910 0002154  99.8840 260.2534 13.15547842247151
ONEWEB-0231             
1 48782U 21045R   26187.21393170 -.00000040  00000+0 -14156-3 0  9996
2 48782  87.8997 255.4072 0002098 105.6966 254.4396 13.15547530246847
ONEWEB-0234             
1 48783U 21045S   26187.25182686  .00000239  00000+0  60017-3 0  9994
2 48783  87.9000 255.3818 0002860  93.9987 266.1470 13.15547381246982
ONEWEB-0238             
1 48784U 21045T   26187.17603488  .00000171  00000+0  42037-3 0  9991
2 48784  87.9004 255.3926 0002457  95.8477 264.2933 13.15548002246876
ONEWEB-0240             
1 48785U 21045U   26187.27335643  .00000034  00000+0  56412-4 0  9999
2 48785  87.9005 255.3827 0002245 106.1676 253.9701 13.15549004246916
ONEWEB-0246             
1 48786U 21045V   26187.26780834  .00000072  00000+0  15748-3 0  9993
2 48786  87.9003 255.3879 0001943 100.3493 259.7856 13.15547521246781
ONEWEB-0210             
1 48787U 21045W   26187.24245674  .00000070  00000+0  15268-3 0  9995
2 48787  87.9001 255.3904 0001464 120.6740 239.4535 13.15547834246828
ONEWEB-0214             
1 48788U 21045X   26187.25115365  .00000145  00000+0  35032-3 0  9994
2 48788  87.9001 255.3854 0001687  97.4029 262.7294 13.15550266246791
ONEWEB-0221             
1 48789U 21045Y   26187.25830844  .00000118  00000+0  27812-3 0  9998
2 48789  87.9002 255.3925 0002045 104.4596 255.6761 13.15547712246881
ONEWEB-0213             
1 48790U 21045Z   26187.24721559  .00000141  00000+0  34076-3 0  9997
2 48790  87.9001 255.3979 0001948 107.3644 252.7699 13.15548562246947
ONEWEB-0212             
1 48791U 21045AA  26187.22421749 -.00000054  00000+0 -17784-3 0  9996
2 48791  87.9000 255.3967 0002089  98.8205 261.3162 13.15547087246939
ONEWEB-0227             
1 48792U 21045AB  26187.22344143 -.00000135  00000+0 -39233-3 0  9992
2 48792  87.9001 255.3973 0002065 101.4821 258.6541 13.15547900246885
ONEWEB-0226             
1 48793U 21045AC  26187.21709968 -.00000038  00000+0 -13537-3 0  9993
2 48793  87.8999 255.4031 0001876 104.9531 255.1807 13.15547716246851
ONEWEB-0224             
1 48794U 21045AD  26187.25672533  .00000153  00000+0  37255-3 0  9994
2 48794  87.8989 255.4286 0002908 106.8227 253.3222 13.15548779246786
ONEWEB-0233             
1 48795U 21045AE  26187.26134577  .00001147  00000+0  30125-2 0  9999
2 48795  87.8991 255.4346 0002087 109.2772 250.8584 13.15543356246809
ONEWEB-0190             
1 48796U 21045AF  26187.24879868  .00000217  00000+0  54209-3 0  9994
2 48796  87.8996 255.3999 0001983 118.9215 241.2115 13.15548954246871
ONEWEB-0236             
1 48797U 21045AG  26187.19017437  .00000105  00000+0  24351-3 0  9996
2 48797  87.8991 255.4202 0002165  96.9389 263.1988 13.15548146246756
ONEWEB-0248             
1 48798U 21045AH  26187.20284655  .00000019  00000+0  15673-4 0  9999
2 48798  87.9002 255.4030 0002257 110.9773 249.1599 13.15548479246915
ONEWEB-0225             
1 48799U 21045AJ  26187.22503005 -.00000040  00000+0 -13996-3 0  9996
2 48799  87.8996 255.4062 0002007 115.3194 244.8144 13.15547979246924
ONEWEB-0215             
1 48800U 21045AK  26187.19492285  .00000133  00000+0  31957-3 0  9990
2 48800  87.9004 255.3956 0002143 118.0270 242.1077 13.15549030246796
ONEWEB-0216             
1 48801U 21045AL  26187.20443086  .00000039  00000+0  69857-4 0  9994
2 48801  87.9001 255.4078 0001995  97.3790 262.7567 13.15547903246801
ONEWEB-0239             
1 48802U 21045AM  26187.20918345  .00000019  00000+0  17210-4 0  9994
2 48802  87.8990 255.4116 0002438 117.8194 242.3183 13.15548049246844
ONEWEB-0249             
1 48967U 21060A   26187.12810846 -.00000027  00000+0 -10305-3 0  9999
2 48967  87.9082 225.0160 0002158  97.4225 262.7151 13.16596017242103
ONEWEB-0250             
1 48968U 21060B   26187.17446888  .00000042  00000+0  65125-4 0  9992
2 48968  87.9083 222.7012 0003147  95.1560 264.9935 13.25834712242731
ONEWEB-0252             
1 48970U 21060D   26187.15900646  .00000082  00000+0  18165-3 0  9995
2 48970  87.9079 225.0023 0001831  95.0121 265.1218 13.16594861242158
ONEWEB-0253             
1 48971U 21060E   26187.14792477  .00000034  00000+0  54724-4 0  9995
2 48971  87.9081 225.0099 0002185  96.8356 263.3023 13.16594873242086
ONEWEB-0254             
1 48972U 21060F   26187.15742260  .00000041  00000+0  72785-4 0  9997
2 48972  87.9083 225.0060 0002207 103.0059 257.1318 13.16593537242087
ONEWEB-0255             
1 48973U 21060G   26187.19541984 -.00000011  00000+0 -62400-4 0  9994
2 48973  87.9083 225.0045 0002107  99.8713 260.2656 13.16594102242167
ONEWEB-0256             
1 48974U 21060H   26187.14554905 -.00000035  00000+0 -12403-3 0  9990
2 48974  87.9077 225.0179 0002018  92.0721 268.0641 13.16594543242129
ONEWEB-0257             
1 48975U 21060J   26187.32999522  .00000243  00000+0  60327-3 0  9996
2 48975  87.9082 224.9691 0002002  98.2289 261.9069 13.16594301242109
ONEWEB-0258             
1 48976U 21060K   26187.17958832  .00000020  00000+0  19092-4 0  9996
2 48976  87.9083 225.0111 0002097  95.5005 264.6366 13.16593468242091
ONEWEB-0259             
1 48977U 21060L   26187.17325376  .00000070  00000+0  15005-3 0  9992
2 48977  87.9081 225.0114 0002197  98.4785 261.6595 13.16593619242124
ONEWEB-0260             
1 48978U 21060M   26187.16453789  .00000063  00000+0  13132-3 0  9993
2 48978  87.9076 225.0138 0001707  89.4728 270.6598 13.16595114242101
ONEWEB-0261             
1 48979U 21060N   26187.13446611 -.00000038  00000+0 -13393-3 0  9990
2 48979  87.9081 225.0204 0001940 103.5765 256.5582 13.16593620242151
ONEWEB-0262             
1 48980U 21060P   26187.19066869  .00000029  00000+0  41911-4 0  9997
2 48980  87.9083 224.9955 0002311  99.4406 260.6987 13.16593757242127
ONEWEB-0263             
1 48981U 21060Q   26187.14633485 -.00000034  00000+0 -12319-3 0  9994
2 48981  87.9082 225.0162 0002042 104.6504 255.4854 13.16593279242087
ONEWEB-0264             
1 48982U 21060R   26187.18351337 -.00010157  00000+0 -26611-1 0  9997
2 48982  87.9076 225.0113 0001993  99.4679 260.6677 13.16645606242099
ONEWEB-0266             
1 48984U 21060T   26187.05292360  .00000020  00000+0  19132-4 0  9994
2 48984  87.9084 225.0281 0002148  93.3317 266.8060 13.16595245242065
ONEWEB-0267             
1 48985U 21060U   26187.14000507 -.00000081  00000+0 -24672-3 0  9998
2 48985  87.9083 225.0078 0001953  99.9441 260.1910 13.16593513242081
ONEWEB-0268             
1 48986U 21060V   26187.10833674  .00000042  00000+0  75394-4 0  9997
2 48986  87.9082 225.0233 0001967  92.3866 267.7490 13.16593763242349
ONEWEB-0269             
1 48987U 21060W   26187.16533637  .00000042  00000+0  74946-4 0  9992
2 48987  87.9074 225.0130 0002032  89.3405 270.7959 13.16593443242121
ONEWEB-0270             
1 48988U 21060X   26187.18275468  .00000009  00000+0 -92444-5 0  9998
2 48988  87.9084 225.0106 0002204 104.3290 255.8086 13.16593982242164
ONEWEB-0271             
1 48989U 21060Y   26187.17008892  .00000141  00000+0  33468-3 0  9998
2 48989  87.9080 225.0025 0002004 102.0353 258.1003 13.16593862242166
ONEWEB-0272             
1 48990U 21060Z   26187.19225907 -.00000057  00000+0 -18223-3 0  9990
2 48990  87.9075 225.0092 0001757  94.6433 265.4899 13.16595525242112
ONEWEB-0273             
1 48991U 21060AA  26187.13841878 -.00000070  00000+0 -21676-3 0  9997
2 48991  87.9082 225.0203 0002099  98.8568 261.2800 13.16594026242087
ONEWEB-0274             
1 48992U 21060AB  26187.16374945  .00000056  00000+0  11245-3 0  9990
2 48992  87.9073 225.0160 0001744  91.9233 268.2097 13.16594815242125
